COSMOS 2425 (716)       
1 29670U 06062A   18048.44932968  .00000021  00000-0  10000-3 0  9991
2 29670  65.3384 296.5856 0022768 347.3209  24.9206  2.13104839 86760
COSMOS 2426 (717)       
1 29671U 06062B   18049.09918543  .00000019  00000-0  10000-3 0  9994
2 29671  65.3546 296.6571 0016186 162.5803 204.8189  2.13103039 86782
COSMOS 2433 (720)       
1 32275U 07052A   18048.66854198  .00000008  00000-0  10000-3 0  9993
2 32275  65.6314  57.3734 0005153 273.3870  98.7406  2.13104711 80281
COSMOS 2432 (719)       
1 32276U 07052B   18049.13772589  .00000008  00000-0  10000-3 0  9990
2 32276  65.6433  57.4337 0012998 325.5922 358.7007  2.13103918 80281
COSMOS 2434 (721)       
1 32393U 07065A   18048.88872828  .00000021  00000-0  00000-0 0  9993
2 32393  64.9538 295.5990 0004375  87.2717 342.2087  2.13103028 78996
COSMOS 2436 (723)       
1 32395U 07065C   18048.81966523  .00000021  00000-0  10000-3 0  9998
2 32395  64.9624 295.6546 0016705   1.2160  65.1841  2.13104231 78929
COSMOS 2456 (730)       
1 36111U 09070A   18048.63763914  .00000032  00000-0  00000-0 0  9993
2 36111  64.1848 175.1868 0003392 335.9818  72.8035  2.13102798 63653
COSMOS 2457 (733)       
1 36112U 09070B   18048.81346896  .00000033  00000-0  00000+0 0  9990
2 36112  64.1661 175.0938 0006573 154.1931 156.9384  2.13101503 63659
COSMOS 2458 (734)       
1 36113U 09070C   18049.13509458  .00000036  00000-0  10000-3 0  9990
2 36113  64.1712 175.0928 0002475  48.8941 197.2153  2.13102034 63666
COSMOS 2459 (731)       
1 36400U 10007A   18048.44590809  .00000007  00000-0  10000-3 0  9992
2 36400  65.5418  56.4571 0028104 346.9106  74.3308  2.13102188 62005
COSMOS 2461 (735)       
1 36401U 10007B   18048.73424578  .00000007  00000-0  10000-3 0  9994
2 36401  65.5329  56.4230 0004897  46.4120 146.6204  2.13102118 62001
COSMOS 2460 (732)       
1 36402U 10007C   18049.44514872  .00000007  00000-0  10000-3 0  9991
2 36402  65.5239  56.3679 0002628 289.9044 129.3860  2.13101693 62022
COSMOS 2464 (736)       
1 37139U 10041C   18048.90367645  .00000020  00000-0  00000+0 0  9991
2 37139  64.5570 295.4655 0025147  11.9477 296.7681  2.13102641 58075
COSMOS 2471 (701K)      
1 37372U 11009A   18049.10882315  .00000007  00000-0  00000+0 0  9999
2 37372  65.5214  56.3260 0009556 242.6452  60.0466  2.13107659 54284
COSMOS 2474 (742)       
1 37829U 11055A   18049.37049721  .00000039  00000-0  00000+0 0  9997
2 37829  64.5083 175.8285 0006945 242.3624 227.3293  2.13101829 49660
COSMOS 2476 (744)       
1 37867U 11064A   18049.19498442  .00000038  00000-0  00000+0 0  9996
2 37867  64.4878 175.8995 0016555 239.3603 141.6890  2.13101919 49012
COSMOS 2477 (745)       
1 37868U 11064B   18049.09700487  .00000037  00000-0  00000+0 0  9990
2 37868  64.4963 175.9501 0014459 240.6326 244.2396  2.13101709 48961
COSMOS 2475 (743)       
1 37869U 11064C   18048.63228116  .00000033  00000-0  00000-0 0  9991
2 37869  64.5037 175.9594 0018684 268.8961 176.0797  2.13101854 48966
COSMOS 2485 (747)       
1 39155U 13019A   18049.12091227  .00000037  00000-0  00000+0 0  9992
2 39155  64.6571 175.9858 0017084 234.0377 135.1245  2.13101875 37484
COSMOS 2492 (754)       
1 39620U 14012A   18049.29335634  .00000007  00000-0  10000-3 0  9996
2 39620  65.4133  56.2749 0016526 323.4263 212.6242  2.13103414 30438
COSMOS 2500 (755)       
1 40001U 14032A   18049.17504299  .00000006  00000-0  00000+0 0  9999
2 40001  65.3547  56.2580 0007022 229.2448  78.5493  2.13102776 28640
COSMOS 2501 (702K)      
1 40315U 14075A   18048.76438553  .00000018  00000-0  00000-0 0  9991
2 40315  64.2836 296.7280 0014336 209.4953 306.2600  2.13098452 25049
COSMOS 2514 (751)       
1 41330U 16008A   18048.73240319  .00000006  00000-0  00000-0 0  9992
2 41330  65.1563  56.3559 0010563 230.0531 278.7840  2.13103308 15802
COSMOS 2516 (753)       
1 41554U 16032A   18048.73750715  .00000019  00000-0  00000-0 0  9997
2 41554  64.5025 296.5597 0010613 224.1408 180.1208  2.13101671 13419
COSMOS 2522 (752)       
1 42939U 17055A   18048.78329434  .00000019  00000-0  00000-0 0  9996
2 42939  64.7327 296.4887 0006554 261.4905  44.3003  2.13101969  3165
